CUTE-1 (CO-55)          
1 27844U 03031E   20056.44739801  .00000041  00000-0  38093-4 0  9993
2 27844  98.6845  65.8747 0010311  28.6240 331.5502 14.22222743864031
CUBESAT XI-IV (CO-57)   
1 27848U 03031J   20057.00428252  .00000023  00000-0  30200-4 0  9997
2 27848  98.6915  66.9683 0010364  38.5541 321.6375 14.21811716863991
CUBESAT XI-V            
1 28895U 05043F   20057.37493979  .00000089  00000-0  26017-4 0  9996
2 28895  97.9901 196.9921 0015466 274.2006  85.7429 14.63740478764218
CUTE-1.7+APD II (CO-65) 
1 32785U 08021C   20058.14073568  .00000159  00000-0  22699-4 0  9992
2 32785  97.5659  51.1028 0014034 137.5817 222.6488 14.88422552641384
AAUSAT-II               
1 32788U 08021F   20057.94591745  .00000192  00000-0  22560-4 0  9998
2 32788  97.4930  67.4005 0013177  72.7549 287.5113 14.94955395642752
DELFI-C3 (DO-64)        
1 32789U 08021G   20058.09506163  .00000810  00000-0  57315-4 0  9999
2 32789  97.4333 104.7193 0011413 345.1664  14.9228 15.07479164645133
SEEDS II (CO-66)        
1 32791U 08021J   20058.73588686  .00000352  00000-0  40920-4 0  9998
2 32791  97.5370  57.8064 0014781 109.4437 250.8381 14.90979782641963
SWISSCUBE               
1 35932U 09051B   20058.19189414  .00000091  00000-0  31690-4 0  9992
2 35932  98.6043 236.9198 0008690 106.8696 253.3454 14.56361376553675
BEESAT-1                
1 35933U 09051C   20058.45495917  .00000089  00000-0  31033-4 0  9998
2 35933  98.6052 239.0378 0006822 116.6586 243.5310 14.56441279553822
ITUPSAT1                
1 35935U 09051E   20057.49118729  .00000073  00000-0  27959-4 0  9991
2 35935  98.6159 238.2578 0009124 118.9652 241.2460 14.55591226553415
TISAT 1                 
1 36799U 10035E   20057.11895937  .00000290  00000-0  35318-4 0  9995
2 36799  98.1815 223.1488 0011725 344.3428  15.7425 14.91277919522384
M-CUBED & EXP-1 PRIME   
1 37855U 11061F   20058.17398629  .00001160  00000-0  64982-4 0  9998
2 37855 101.7248  89.2078 0171770  45.2098 316.2937 15.06033482454453
AEROCUBE 4.5A           
1 38767U 12048K   20057.89575729  .00000624  00000-0  63701-4 0  9995
2 38767  64.6643 225.1219 0154574 173.6420 186.6704 14.92174406 25156
AEROCUBE 4.5B           
1 38768U 12048L   20057.64246636  .00000933  00000-0  82228-4 0  9999
2 38768  64.6661 196.4292 0143326 170.3860 190.0052 14.95809903 25158
STRAND-1                
1 39090U 13009E   20057.38730717  .00000024  00000-0  23621-4 0  9998
2 39090  98.4661 263.8061 0008024 256.7090 103.3201 14.35119306366633
SOMP                    
1 39134U 13015E   20057.59467153  .00000984  00000-0  53148-4 0  9990
2 39134  64.8620 280.7198 0037659 261.7062  97.9795 15.20771311379044
BEESAT-3                
1 39135U 13015F   20058.83137762  .00000645  00000-0  40890-4 0  9993
2 39135  64.8677 298.6292 0045287 263.6492  95.9476 15.17959578378811
BEESAT-2                
1 39136U 13015G   20057.12043488  .00000530  00000-0  36229-4 0  9990
2 39136  64.8687 308.7598 0029666 279.1353  80.6417 15.17348774378070
NEE-01 PEGASO           
1 39151U 13018B   20058.73734881  .00000120  00000-0  22709-4 0  9995
2 39151  97.9695 158.3577 0018429  98.9752 261.3547 14.80132264369306
ESTCUBE 1               
1 39161U 13021C   20058.70659530  .00000113  00000-0  25639-4 0  9991
2 39161  97.9698 143.9445 0008622 231.6424 128.4019 14.72284138365740
POPACS 1                
1 39268U 13055D   20057.41641804  .00002326  00000-0  63456-4 0  9995
2 39268  81.0004  54.5279 0619813 194.7406 163.4981 14.38543726331882
POPACS 2                
1 39269U 13055E   20057.81211028  .00001886  00000-0  54744-4 0  9991
2 39269  81.0124  89.5410 0678613 285.4174  67.3064 14.25019101331306
POPACS 3                
1 39270U 13055F   20056.89997465  .00002262  00000-0  70405-4 0  9997
2 39270  81.0146 110.6172 0710850 346.0904  12.1539 14.16596861309198
ZACUBE-1 (TSHEPISOSAT)  
1 39417U 13066B   20058.78243326  .00000155  00000-0  25977-4 0  9995
2 39417  97.5636  62.9769 0057365 281.1424  78.3344 14.81227742338651
WNISAT-1                
1 39423U 13066H   20058.72997726  .00000034  00000-0  16846-4 0  9997
2 39423  97.7975 347.7934 0174145 240.7995 117.5675 14.53097304332345
TRITON-1                
1 39427U 13066M   20058.03352817  .00000252  00000-0  47681-4 0  9994
2 39427  97.7118  25.2444 0115133  74.7103 286.6795 14.67949239335500
GOMX-1                  
1 39430U 13066Q   20058.73251475  .00000121  00000-0  30863-4 0  9992
2 39430  97.7795   4.0211 0151030 172.8829 187.4566 14.59351628333651
CUBEBUG-2 (LO-74)       
1 39440U 13066AA  20058.71661125  .00000187  00000-0  33090-4 0  9995
2 39440  97.6220  47.3979 0079704 340.8844  18.9379 14.75964525337441
NEE-02 KRYSAOR          
1 39441U 13066AB  20057.43307781  .00000143  00000-0  27450-4 0  9994
2 39441  97.6283  43.7746 0081547 353.3728   6.6396 14.74984047337051
FUNCUBE-1 (AO-73)       
1 39444U 13066AE  20057.96575243  .00000195  00000-0  30412-4 0  9994
2 39444  97.5590  64.3679 0056448 276.4151  83.0637 14.82069544337440
UWE-3                   
1 39446U 13066AG  20057.40584107  .00000179  00000-0  30552-4 0  9991
2 39446  97.5925  53.3535 0068909 316.3360  43.2411 14.78499207336012
AEROCUBE 5A             
1 39465U 13072D   20058.82908953  .00004229  00000-0  35541-3 0  9997
2 39465 120.4958 122.8002 0278501 130.8233 231.7320 14.75261249 25035
AEROCUBE 5B             
1 39466U 13072E   20058.73950178  .00008503  00000-0  58915-3 0  9993
2 39466 120.4924 153.3337 0250681 138.0180 224.0381 14.84633012 25122
BRITE-CA1 (TORONTO)     
1 40020U 14033L   20057.45635608  .00000049  00000-0  16545-4 0  9996
2 40020  97.7320 252.0601 0088728  70.4819 290.5943 14.66624556304356
DUCHIFAT-1              
1 40021U 14033M   20058.26920540  .00000358  00000-0  42280-4 0  9997
2 40021  97.9375 348.8723 0011630 297.9965  62.0076 14.90821405309324
NANOSATC-BR1            
1 40024U 14033Q   20056.75313066  .00000335  00000-0  40656-4 0  9991
2 40024  97.9239 344.0803 0011112 308.1050  51.9164 14.90002357308453
QB50P1                  
1 40025U 14033R   20057.91041296  .00000222  00000-0  29525-4 0  9991
2 40025  97.9133 342.2585 0011349 311.4177  48.6064 14.89076892308492
QB50P2                  
1 40032U 14033Y   20056.51278669  .00000245  00000-0  32327-4 0  9999
2 40032  97.9034 338.5664 0010799 313.0867  46.9445 14.88605914308180
PERSEUS-M2              
1 40037U 14033AD  20057.38969535  .00000065  00000-0  13576-4 0  9994
2 40037  97.8911 334.5721 0013566 324.7974  35.2344 14.86518162308513
PERSEUS-M1              
1 40039U 14033AF  20057.77462727  .00000067  00000-0  13893-4 0  9994
2 40039  97.8882 333.8393 0013346 321.2402  38.7855 14.86138637307983
POLYITAN-1              
1 40042U 14033AJ  20057.82008425  .00000318  00000-0  40047-4 0  9995
2 40042  97.9215 342.6239 0013414 300.6772  59.3122 14.88814043308387
TIGRISAT                
1 40043U 14033AK  20057.30430351  .00000109  00000-0  23410-4 0  9999
2 40043  97.7247 278.8743 0060032   2.5286 357.6215 14.74344686305523
AEROCUBE 6A             
1 40045U 14033AM  20057.18493252  .00000218  00000-0  38598-4 0  9990
2 40045  97.7496 283.6980 0057800 354.7146   5.3446 14.75523632305551
AEROCUBE 6B             
1 40046U 14033AN  20057.60041699  .00000214  00000-0  38083-4 0  9997
2 40046  97.7413 283.4902 0056927 352.6271   7.4095 14.75502856305994
UKUBE-1                 
1 40074U 14037F   20057.92911210  .00000302  00000-0  43303-4 0  9991
2 40074  98.4533 239.6302 0005584 110.1241 250.0561 14.84200554305219
BRITE-PL2 (HEWELIUSZ)   
1 40119U 14049B   20057.36127215  .00000124  00000-0  21090-4 0  9997
2 40119  97.8952 150.7031 0018794 114.0705 246.2478 14.84474006299068
FIREBIRD 4              
1 40378U 15003C   20058.11813032  .00001828  00000-0  74269-4 0  9996
2 40378  99.1102  95.5806 0124309 326.0654  33.2667 15.19675911280400
GRIFEX                  
1 40379U 15003D   20058.81310331  .00001206  00000-0  54747-4 0  9997
2 40379  99.1167  88.9628 0133288 346.6959  13.0766 15.16122920280086
EXOCUBE (CP10)          
1 40380U 15003E   20058.80093839  .00001342  00000-0  63000-4 0  9992
2 40380  99.1231  84.9090 0138578   0.2398 359.8870 15.14107497279812
AEROCUBE 8A             
1 40659U 15025J   20058.11902318  .00011104  00000-0  13248-3 0  9995
2 40659  55.0172  87.2122 0110646 246.4059 112.5327 15.54561078 26221
AEROCUBE 8B             
1 40660U 15025K   20058.05668395  .00011582  00000-0  13678-3 0  9991
2 40660  55.0145  85.7271 0109795 248.0601 110.8736 15.54859898 26220
TIANWANG 1C (TW-1C)     
1 40926U 15051B   20058.73758339  .00014435  00000-0  16808-3 0  9996
2 40926  97.1011 110.0120 0008291 135.3799 319.0210 15.61750710249727
TIANWANG 1A (TW-1A)     
1 40928U 15051D   20058.86217421  .00002245  00000-0  54504-4 0  9996
2 40928  97.1207  89.3527 0009358 221.0873 312.2499 15.42026378248320
EXACTVIEW 9             
1 40936U 15052G   20056.36715701  .00000754  00000-0  16414-4 0  9994
2 40936   6.0042  66.6355 0010011 104.5584 255.5655 14.76544925238482
AEROCUBE 5C             
1 40965U 15058B   20058.13140199 -.00000007  00000-0  19054-4 0  9997
2 40965  64.7782 121.0510 0169667 115.4690 246.4076 14.74481691 24898
AEROCUBE 7              
1 40966U 15058C   20058.13404027  .00000034  00000-0  23856-4 0  9995
2 40966  64.7781 119.6784 0168519 115.1981 246.6704 14.74773273 24899
ATHENOXAT 1             
1 41168U 15077C   20057.38817686  .00001792  00000-0  58578-4 0  9997
2 41168  14.9874 163.5084 0011583   8.1273 351.9234 15.14132046232338
GALASSIA                
1 41170U 15077E   20058.57869103  .00001597  00000-0  47540-4 0  9993
2 41170  14.9880 146.9996 0012809  50.7338 309.4118 15.14444932232588
VELOX-II                
1 41171U 15077F   20056.61133712  .00001460  00000-0  45171-4 0  9994
2 41171  14.9900 202.1975 0008942 286.7702  73.1638 15.11538005231924
